CCSDS_OEM_VERS = 1.0
CREATION_DATE  = 2017-05-11T11:43:47
ORIGINATOR     = GMAT USER

META_START
OBJECT_NAME          = MOPSSat_alt_35785_km_RAAN_180_142
OBJECT_ID            = SatId
CENTER_NAME          = Earth
REF_FRAME            = EME2000
TIME_SYSTEM          = UTC
START_TIME           = 2017-01-01T00:00:00.000
USEABLE_START_TIME   = 2017-01-01T00:00:00.000
USEABLE_STOP_TIME    = 2017-01-02T00:00:00.000
STOP_TIME            = 2017-01-02T00:00:00.000
INTERPOLATION        = Lagrange
INTERPOLATION_DEGREE = 7 
META_STOP


                                                                                   

2017-01-01T16:39:10.000   4.260735116354337e+04   3.048762236065720e+04  -2.672177485391356e+03  -1.956969976582857e+00   1.377445698177221e+00  -1.205069710024329e-01
2017-01-01T16:39:20.000   4.258777558198498e+04   3.050139260707672e+04  -2.673382186027573e+03  -1.958146405307895e+00   1.376603510503490e+00  -1.204331496451638e-01
2017-01-01T16:39:30.000   4.256818823622791e+04   3.051515442781789e+04  -2.674586148117174e+03  -1.959322820163472e+00   1.375760565175027e+00  -1.203592619119127e-01
2017-01-01T16:39:40.000   4.254858912618944e+04   3.052890781545818e+04  -2.675789371009869e+03  -1.960499220984679e+00   1.374916861621663e+00  -1.202853077527622e-01
2017-01-01T16:39:50.000   4.252897825203203e+04   3.054265276239708e+04  -2.676991854039803e+03  -1.961675607591427e+00   1.374072399283020e+00  -1.202112871186530e-01
2017-01-01T16:40:00.000   4.250935561390631e+04   3.055638926103830e+04  -2.678193596541485e+03  -1.962851979803948e+00   1.373227177597474e+00  -1.201371999604171e-01
2017-01-01T16:40:10.000   4.248972121200849e+04   3.057011730374898e+04  -2.679394597846230e+03  -1.964028337439329e+00   1.372381196004616e+00  -1.200630462289927e-01
2017-01-01T16:40:20.000   4.247007504656549e+04   3.058383688287142e+04  -2.680594857283177e+03  -1.965204680312459e+00   1.371534453944635e+00  -1.199888258753706e-01
2017-01-01T16:40:30.000   4.245041711781465e+04   3.059754799073612e+04  -2.681794374180432e+03  -1.966381008237192e+00   1.370686950857421e+00  -1.199145388505158e-01
2017-01-01T16:40:40.000   4.243074742599682e+04   3.061125061966688e+04  -2.682993147865513e+03  -1.967557321026771e+00   1.369838686182271e+00  -1.198401851053410e-01
2017-01-01T16:40:50.000   4.241106597128638e+04   3.062494476202993e+04  -2.684191177669655e+03  -1.968733618498044e+00   1.368989659354880e+00  -1.197657645904435e-01
2017-01-01T16:41:00.000   4.239137275383756e+04   3.063863041020109e+04  -2.685388462924925e+03  -1.969909900468640e+00   1.368139869809328e+00  -1.196912772562790e-01
2017-01-01T16:41:10.000   4.237166777378472e+04   3.065230755656571e+04  -2.686585002964227e+03  -1.971086166756987e+00   1.367289316978084e+00  -1.196167230531622e-01
2017-01-01T16:41:20.000   4.235195103119482e+04   3.066597619355096e+04  -2.687780797124127e+03  -1.972262417185098e+00   1.366438000289956e+00  -1.195421019310871e-01
2017-01-01T16:41:30.000   4.233222252613820e+04   3.067963631357726e+04  -2.688975844740589e+03  -1.973438651574377e+00   1.365585919173149e+00  -1.194674138399945e-01
2017-01-01T16:41:40.000   4.231248225869590e+04   3.069328790905324e+04  -2.690170145148556e+03  -1.974614869745185e+00   1.364733073055575e+00  -1.193926587298001e-01
2017-01-01T16:41:50.000   4.229273022897848e+04   3.070693097236173e+04  -2.691363697680708e+03  -1.975791071515671e+00   1.363879461365659e+00  -1.193178365504644e-01
2017-01-01T16:42:00.000   4.227296643714276e+04   3.072056549584947e+04  -2.692556501666571e+03  -1.976967256700829e+00   1.363025083533073e+00  -1.192429472520575e-01
2017-01-01T16:42:10.000   4.225319088333332e+04   3.073419147186690e+04  -2.693748556435990e+03  -1.978143425115957e+00   1.362169938986205e+00  -1.191679907845367e-01
2017-01-01T16:42:20.000   4.223340356794424e+04   3.074780889258948e+04  -2.694939861303508e+03  -1.979319576561162e+00   1.361314027163496e+00  -1.190929670987411e-01
2017-01-01T16:42:30.000   4.221360449130220e+04   3.076141775023446e+04  -2.696130415587313e+03  -1.980495710840133e+00   1.360457347499713e+00  -1.190178761451874e-01
2017-01-01T16:42:40.000   4.219379365378424e+04   3.077501803698005e+04  -2.697320218602191e+03  -1.981671827753158e+00   1.359599899431048e+00  -1.189427178745173e-01
2017-01-01T16:42:50.000   4.217397105536211e+04   3.078860974527856e+04  -2.698509269686893e+03  -1.982847927124180e+00   1.358741682375394e+00  -1.188674922357691e-01
2017-01-01T16:43:00.000   4.215413669605663e+04   3.080219286754396e+04  -2.699697568176826e+03  -1.984024008773803e+00   1.357882695752012e+00  -1.187921991781005e-01
2017-01-01T16:43:10.000   4.213429057583505e+04   3.081576739622289e+04  -2.700885113410252e+03  -1.985200072525417e+00   1.357022938977085e+00  -1.187168386503999e-01
2017-01-01T16:43:20.000   4.211443269486632e+04   3.082933332361765e+04  -2.702071904712801e+03  -1.986376118189949e+00   1.356162411474746e+00  -1.186414106022527e-01
2017-01-01T16:43:30.000   4.209456305333201e+04   3.084289064201793e+04  -2.703257941409006e+03  -1.987552145577182e+00   1.355301112668919e+00  -1.185659149832257e-01
2017-01-01T16:43:40.000   4.207468165142569e+04   3.085643934370026e+04  -2.704443222822246e+03  -1.988728154495753e+00   1.354439041983279e+00  -1.184903517428644e-01
2017-01-01T16:43:50.000   4.205478848954561e+04   3.086997942079901e+04  -2.705627748263457e+03  -1.989904144741842e+00   1.353576198849641e+00  -1.184147208314275e-01
2017-01-01T16:44:00.000   4.203488356803580e+04   3.088351086548065e+04  -2.706811517046392e+03  -1.991080116114399e+00   1.352712582696694e+00  -1.183390221989001e-01
2017-01-01T16:44:10.000   4.201496688728777e+04   3.089703366987493e+04  -2.707994528481586e+03  -1.992256068409151e+00   1.351848192954430e+00  -1.182632557953814e-01
2017-01-01T16:44:20.000   4.199503844729126e+04   3.091054782638011e+04  -2.709176781903065e+03  -1.993432001445129e+00   1.350983029034636e+00  -1.181874215693750e-01
2017-01-01T16:44:30.000   4.197509824808352e+04   3.092405332735765e+04  -2.710358276641636e+03  -1.994607915038133e+00   1.350117090350391e+00  -1.181115194694981e-01
2017-01-01T16:44:40.000   4.195514628964783e+04   3.093755016520136e+04  -2.711539012030935e+03  -1.995783809006733e+00   1.349250376311670e+00  -1.180355494440956e-01
2017-01-01T16:44:50.000   4.193518257217042e+04   3.095103833216146e+04  -2.712718987392035e+03  -1.996959683157033e+00   1.348382886336463e+00  -1.179595114422152e-01
2017-01-01T16:45:00.000   4.191520709585016e+04   3.096451782047547e+04  -2.713898202044899e+03  -1.998135537293979e+00   1.347514619842549e+00  -1.178834054128862e-01
2017-01-01T16:45:10.000   4.189521986089810e+04   3.097798862236784e+04  -2.715076655308344e+03  -1.999311371221360e+00   1.346645576247453e+00  -1.178072313051156e-01
2017-01-01T16:45:20.000   4.187522086773103e+04   3.099145072992145e+04  -2.716254346488809e+03  -2.000487184730500e+00   1.345775754976904e+00  -1.177309890686298e-01
2017-01-01T16:45:30.000   4.185521011671129e+04   3.100490413525114e+04  -2.717431274895515e+03  -2.001662977615486e+00   1.344905155453479e+00  -1.176546786528790e-01
2017-01-01T16:45:40.000   4.183518760825096e+04   3.101834883043375e+04  -2.718607439834375e+03  -2.002838749667044e+00   1.344033777101156e+00  -1.175783000074360e-01
2017-01-01T16:45:50.000   4.181515334235258e+04   3.103178480781682e+04  -2.719782840634968e+03  -2.004014500699536e+00   1.343161619325308e+00  -1.175018530802433e-01
2017-01-01T16:46:00.000   4.179510731906959e+04   3.104521205970905e+04  -2.720957476623483e+03  -2.005190230523893e+00   1.342288681532746e+00  -1.174253378193696e-01
2017-01-01T16:46:10.000   4.177504953838753e+04   3.105863057846039e+04  -2.722131347129717e+03  -2.006365938954604e+00   1.341414963126557e+00  -1.173487541725566e-01
2017-01-01T16:46:20.000   4.175498000054304e+04   3.107204035624665e+04  -2.723304451468230e+03  -2.007541625790938e+00   1.340540463519956e+00  -1.172721020884346e-01
2017-01-01T16:46:30.000   4.173489870576088e+04   3.108544138524736e+04  -2.724476788953910e+03  -2.008717290832440e+00   1.339665182124868e+00  -1.171953815155207e-01
2017-01-01T16:46:40.000   4.171480565431453e+04   3.109883365760475e+04  -2.725648358898377e+03  -2.009892933875352e+00   1.338789118354555e+00  -1.171185924024491e-01
2017-01-01T16:46:50.000   4.169470084650333e+04   3.111221716544013e+04  -2.726819160611422e+03  -2.011068554713999e+00   1.337912271622644e+00  -1.170417346978863e-01
2017-01-01T16:47:00.000   4.167458428264068e+04   3.112559190086078e+04  -2.727989193401615e+03  -2.012244153141451e+00   1.337034641342587e+00  -1.169648083504835e-01
2017-01-01T16:47:10.000   4.165445596302990e+04   3.113895785597614e+04  -2.729158456577705e+03  -2.013419728950918e+00   1.336156226926613e+00  -1.168878133087847e-01
2017-01-01T16:47:20.000   4.163431588795369e+04   3.115231502290566e+04  -2.730326949449320e+03  -2.014595281936414e+00   1.335277027785283e+00  -1.168107495211879e-01
2017-01-01T16:47:30.000   4.161416405764956e+04   3.116566339379397e+04  -2.731494671328292e+03  -2.015770811894141e+00   1.334397043326393e+00  -1.167336169358490e-01
2017-01-01T16:47:40.000   4.159400047237142e+04   3.117900296077050e+04  -2.732661621525120e+03  -2.016946318618911e+00   1.333516272957677e+00  -1.166564155009183e-01
2017-01-01T16:47:50.000   4.157382513212279e+04   3.119233371612444e+04  -2.733827799364285e+03  -2.018121801919634e+00   1.332634716075118e+00  -1.165791451635162e-01
2017-01-01T16:48:00.000   4.155363803697979e+04   3.120565565209260e+04  -2.734993204165676e+03  -2.019297261600551e+00   1.331752372077090e+00  -1.165018058709729e-01
2017-01-01T16:48:10.000   4.153343918696928e+04   3.121896876093961e+04  -2.736157835251622e+03  -2.020472697468324e+00   1.330869240359019e+00  -1.164243975703603e-01
